<?xml version='1.0' encoding='utf-8'?>
<gpx version="1.1" xmlns="http://www.topografix.com/GPX/1/1"><trk><name>Rich Creek valley</name><trkseg><trkpt lat="39.066" lon="-106.14" /><trkpt lat="39.066012" lon="-106.1394" /><trkpt lat="39.066024" lon="-106.1388" /><trkpt lat="39.066036000000004" lon="-106.1382" /><trkpt lat="39.066048" lon="-106.1376" /><trkpt lat="39.06606" lon="-106.137" /><trkpt lat="39.066072" lon="-106.1364" /><trkpt lat="39.066084000000004" lon="-106.1358" /><trkpt lat="39.066096" lon="-106.1352" /><trkpt lat="39.066108" lon="-106.1346" /><trkpt lat="39.06612" lon="-106.134" /><trkpt lat="39.066132" lon="-106.1334" /><trkpt lat="39.066144" lon="-106.1328" /><trkpt lat="39.066156" lon="-106.1322" /><trkpt lat="39.066168" lon="-106.1316" /><trkpt lat="39.06618" lon="-106.131" /><trkpt lat="39.066192" lon="-106.1304" /><trkpt lat="39.066204" lon="-106.1298" /><trkpt lat="39.066216" lon="-106.1292" /><trkpt lat="39.066228" lon="-106.1286" /><trkpt lat="39.06624" lon="-106.128" /><trkpt lat="39.066252" lon="-106.1274" /><trkpt lat="39.066264" lon="-106.1268" /><trkpt lat="39.066276" lon="-106.1262" /><trkpt lat="39.066288" lon="-106.1256" /><trkpt lat="39.0663" lon="-106.125" /><trkpt lat="39.066376" lon="-106.12466" /><trkpt lat="39.066452" lon="-106.12432" /><trkpt lat="39.066528" lon="-106.12398" /><trkpt lat="39.066604" lon="-106.12364" /><trkpt lat="39.06668" lon="-106.1233" /><trkpt lat="39.066756" lon="-106.12296" /><trkpt lat="39.066832" lon="-106.12262" /><trkpt lat="39.066908" lon="-106.12228" /><trkpt lat="39.066984" lon="-106.12194" /><trkpt lat="39.06706" lon="-106.1216" /><trkpt lat="39.067136" lon="-106.12126" /><trkpt lat="39.067212" lon="-106.12092" /><trkpt lat="39.067288" lon="-106.12058" /><trkpt lat="39.067364" lon="-106.12024" /><trkpt lat="39.06744" lon="-106.1199" /><trkpt lat="39.067516" lon="-106.11956" /><trkpt lat="39.067592" lon="-106.11922" /><trkpt lat="39.067668" lon="-106.11888" /><trkpt lat="39.067744" lon="-106.11854" /><trkpt lat="39.06782" lon="-106.1182" /><trkpt lat="39.067896" lon="-106.11786000000001" /><trkpt lat="39.067972" lon="-106.11752" /><trkpt lat="39.068048" lon="-106.11718" /><trkpt lat="39.068124" lon="-106.11684" /><trkpt lat="39.0682" lon="-106.1165" /><trkpt lat="39.068211999999995" lon="-106.11604" /><trkpt lat="39.068224" lon="-106.11558000000001" /><trkpt lat="39.068236" lon="-106.11512" /><trkpt lat="39.068248" lon="-106.11466" /><trkpt lat="39.068259999999995" lon="-106.1142" /><trkpt lat="39.068272" lon="-106.11374" /><trkpt lat="39.068284" lon="-106.11328" /><trkpt lat="39.068296" lon="-106.11282" /><trkpt lat="39.068308" lon="-106.11236000000001" /><trkpt lat="39.06832" lon="-106.1119" /><trkpt lat="39.068332" lon="-106.11144" /><trkpt lat="39.068343999999996" lon="-106.11098" /><trkpt lat="39.068356" lon="-106.11052000000001" /><trkpt lat="39.068368" lon="-106.11006" /><trkpt lat="39.06838" lon="-106.1096" /><trkpt lat="39.068391999999996" lon="-106.10914" /><trkpt lat="39.068404" lon="-106.10868" /><trkpt lat="39.068416" lon="-106.10822" /><trkpt lat="39.068428" lon="-106.10776" /><trkpt lat="39.06844" lon="-106.10730000000001" /><trkpt lat="39.068452" lon="-106.10684" /><trkpt lat="39.068464" lon="-106.10638" /><trkpt lat="39.068476" lon="-106.10592" /><trkpt lat="39.068488" lon="-106.10546000000001" /><trkpt lat="39.0685" lon="-106.105" /><trkpt lat="39.06852" lon="-106.1046" /><trkpt lat="39.06854" lon="-106.1042" /><trkpt lat="39.06856" lon="-106.1038" /><trkpt lat="39.06858" lon="-106.10340000000001" /><trkpt lat="39.0686" lon="-106.10300000000001" /><trkpt lat="39.06862" lon="-106.10260000000001" /><trkpt lat="39.06864" lon="-106.1022" /><trkpt lat="39.06866" lon="-106.1018" /><trkpt lat="39.06868" lon="-106.1014" /><trkpt lat="39.0687" lon="-106.101" /><trkpt lat="39.06872" lon="-106.1006" /><trkpt lat="39.06874" lon="-106.1002" /><trkpt lat="39.068760000000005" lon="-106.0998" /><trkpt lat="39.068780000000004" lon="-106.0994" /><trkpt lat="39.0688" lon="-106.099" /><trkpt lat="39.06882" lon="-106.0986" /><trkpt lat="39.06884" lon="-106.0982" /><trkpt lat="39.06886" lon="-106.0978" /><trkpt lat="39.06888" lon="-106.0974" /><trkpt lat="39.0689" lon="-106.097" /><trkpt lat="39.068920000000006" lon="-106.0966" /><trkpt lat="39.068940000000005" lon="-106.0962" /><trkpt lat="39.068960000000004" lon="-106.0958" /><trkpt lat="39.06898" lon="-106.0954" /><trkpt lat="39.069" lon="-106.095" /></trkseg></trk></gpx>